{
  "norad_id": 62507,
  "name": "STARLINK-32679",
  "history": [
    {
      "epoch": "2026-03-28T13:33:53.923680Z",
      "apogee_km": 483.5734667117058,
      "perigee_km": 482.4358894214829,
      "latitude_deg": 3.956068544872176e-05,
      "longitude_deg": 153.27093051539188,
      "height_km": 482.51545188485954,
      "semi_major_axis_km": 6861.141678066594,
      "eccentricity": 8.29e-05,
      "inclination_deg": 42.9961,
      "raan_deg": 182.7294,
      "arg_perigee_deg": 297.7621,
      "mean_anomaly_deg": 62.3147,
      "mean_motion_rev_day": 15.27594834
    }
  ]
}