{"fetched_at":"2026-03-29T02:12:04Z","count":15717,"tles":[{"name":"STARLINK-32679","line1":"1 62507U 25003W   26087.56520745  .00021740  00000+0  79685-3 0  9998","line2":"2 62507  42.9961 182.7294 0000829 297.7621  62.3147 15.27594834 69555","category":"Starlink"}]}